NORAD_CAT_ID,OBJECT_NAME,OBJECT_TYPE,EPOCH,MEAN_MOTION,ECCENTRICITY,INCLINATION,RA_OF_ASC_NODE,ARG_OF_PERICENTER,MEAN_ANOMALY,BSTAR,MEAN_MOTION_DOT,MEAN_MOTION_DDOT,TLE_LINE0,TLE_LINE1,TLE_LINE2,SEMIMAJOR_AXIS,PERIOD,APOGEE,PERIGEE,DECAYED
55671.0,STARLINK-5460,PAYLOAD,2023-11-11 20:46:34,14.98331652,0.0002865,69.9992,144.4541,273.0344,87.0487,-4.313e-05,-6.08e-06,0.0,0 STARLINK-5460,1 55671U 23021AV  23315.86567968 -.00000608  00000-0 -43130-4 0  9992,2 55671  69.9992 144.4541 0002865 273.0344  87.0487 14.98331652 42144,6950.188,96.107,574.044,570.062,0.0
55671.0,STARLINK-5460,PAYLOAD,2023-11-12 06:23:22,14.98332484,0.0002837,69.9992,143.4442,273.1018,86.9816,-3.0643e-05,-4.59e-06,0.0,0 STARLINK-5460,1 55671U 23021AV  23316.26623826 -.00000459  00000-0 -30643-4 0  9992,2 55671  69.9992 143.4442 0002837 273.1018  86.9816 14.98332484 41902,6950.185,96.107,574.022,570.078,0.0
55671.0,STARLINK-5460,PAYLOAD,2023-11-12 12:47:55,14.98331543,0.0002888,69.9992,142.7709,273.2077,86.8752,3.4379e-05,3.17e-06,0.0,0 STARLINK-5460,1 55671U 23021AV  23316.53327650  .00000317  00000-0  34379-4 0  9999,2 55671  69.9992 142.7709 0002888 273.2077  86.8752 14.98331543 42243,6950.188,96.107,574.06,570.046,0.0
55671.0,STARLINK-5460,PAYLOAD,2023-11-12 22:24:43,14.98333358,0.0002872,69.9993,141.7609,273.142,86.9411,3.8995e-05,3.72e-06,0.0,0 STARLINK-5460,1 55671U 23021AV  23316.93383455  .00000372  00000-0  38995-4 0  9997,2 55671  69.9993 141.7609 0002872 273.1420  86.9411 14.98333358 42302,6950.183,96.107,574.044,570.051,0.0
55671.0,STARLINK-5460,PAYLOAD,2023-11-13 11:13:47,14.98332811,0.0002893,69.9993,140.4145,273.3559,86.7269,5.663e-05,5.83e-06,0.0,0 STARLINK-5460,1 55671U 23021AV  23317.46791335  .00000583  00000-0  56630-4 0  9996,2 55671  69.9993 140.4145 0002893 273.3559  86.7269 14.98332811 42088,6950.184,96.107,574.06,570.039,0.0
55671.0,STARLINK-5460,PAYLOAD,2023-11-13 12:49:55,14.98333274,0.0002895,69.9993,140.2462,273.3684,86.7143,4.8525e-05,4.86e-06,0.0,0 STARLINK-5460,1 55671U 23021AV  23317.53467315  .00000486  00000-0  48525-4 0  9998,2 55671  69.9993 140.2462 0002895 273.3684  86.7143 14.98333274 42398,6950.183,96.107,574.06,570.036,0.0
55671.0,STARLINK-5460,PAYLOAD,2023-11-13 19:14:27,14.98334525,0.0002897,69.9993,139.5729,273.3613,86.7215,5.8509e-05,6.05e-06,0.0,0 STARLINK-5460,1 55671U 23021AV  23317.80171137  .00000605  00000-0  58509-4 0  9998,2 55671  69.9993 139.5729 0002897 273.3613  86.7215 14.98334525 42434,6950.179,96.107,574.057,570.03,0.0
55671.0,STARLINK-5460,PAYLOAD,2023-11-14 11:15:48,14.98330765,0.0002886,69.9993,137.8898,273.8472,86.2357,-2.5268e-05,-3.94e-06,0.0,0 STARLINK-5460,1 55671U 23021AV  23318.46931508 -.00000394  00000-0 -25268-4 0  9990,2 55671  69.9993 137.8898 0002886 273.8472  86.2357 14.98330765 42230,6950.191,96.107,574.061,570.05,0.0
55671.0,STARLINK-5460,PAYLOAD,2023-11-14 12:51:56,14.98330103,0.0002877,69.9993,137.7215,273.8452,86.2378,-3.3403e-05,-4.92e-06,0.0,0 STARLINK-5460,1 55671U 23021AV  23318.53607567 -.00000492  00000-0 -33403-4 0  9992,2 55671  69.9993 137.7215 0002877 273.8452  86.2378 14.98330103 42543,6950.193,96.107,574.057,570.058,0.0
55671.0,STARLINK-5460,PAYLOAD,2023-11-14 22:28:45,14.98328932,0.0002899,69.9993,136.7116,273.989,86.0938,-4.7674e-05,-6.62e-06,0.0,0 STARLINK-5460,1 55671U 23021AV  23318.93663666 -.00000662  00000-0 -47674-4 0  9992,2 55671  69.9993 136.7116 0002899 273.9890  86.0938 14.98328932 42607,6950.196,96.107,574.076,570.046,0.0
55671.0,STARLINK-5460,PAYLOAD,2023-11-15 12:53:57,14.98330165,0.0002998,70.0003,135.1973,274.0574,86.0242,-3.2598e-05,-4.82e-06,0.0,0 STARLINK-5460,1 55671U 23021AV  23319.53747511 -.00000482  00000-0 -32598-4 0  9990,2 55671  70.0003 135.1973 0002998 274.0574  86.0242 14.98330165 42695,6950.192,96.107,574.141,569.974,0.0
55671.0,STARLINK-5460,PAYLOAD,2023-11-15 17:42:21,14.9833199,0.0002993,70.0004,134.6924,273.7627,86.3189,-1.4054e-05,-2.61e-06,0.0,0 STARLINK-5460,1 55671U 23021AV  23319.73775330 -.00000261  00000-0 -14054-4 0  9994,2 55671  70.0004 134.6924 0002993 273.7627  86.3189 14.98331990 42427,6950.187,96.107,574.132,569.972,0.0
55671.0,STARLINK-5460,PAYLOAD,2023-11-16 11:19:50,14.98327464,0.0002869,69.9996,132.8403,271.4574,88.6257,3.7185e-05,3.51e-06,0.0,0 STARLINK-5460,1 55671U 23021AV  23320.47211430  .00000351  00000-0  37185-4 0  9991,2 55671  69.9996 132.8403 0002869 271.4574  88.6257 14.98327464 42831,6950.201,96.107,574.06,570.072,0.0
55671.0,STARLINK-5460,PAYLOAD,2023-11-16 17:44:22,14.98328205,0.00029,69.999,132.1664,270.3242,89.7585,4.1527e-05,4.02e-06,0.0,0 STARLINK-5460,1 55671U 23021AV  23320.73915381  .00000402  00000-0  41527-4 0  9998,2 55671  69.9990 132.1664 0002900 270.3242  89.7585 14.98328205 42574,6950.198,96.107,574.079,570.048,0.0
55671.0,STARLINK-5460,PAYLOAD,2023-11-17 12:57:59,14.98328786,0.0002941,69.9993,130.1469,271.6027,88.4795,-1.0023e-05,-2.13e-06,0.0,0 STARLINK-5460,1 55671U 23021AV  23321.54027574 -.00000213  00000-0 -10023-4 0  9995,2 55671  69.9993 130.1469 0002941 271.6027  88.4795 14.98328786 42997,6950.197,96.107,574.106,570.018,0.0
55671.0,STARLINK-5460,PAYLOAD,2023-11-17 17:46:24,14.98328736,0.0002949,69.9993,129.6419,271.4065,88.6756,-9.3062e-06,-2.04e-06,0.0,0 STARLINK-5460,1 55671U 23021AV  23321.74055582 -.00000204  00000-0 -93062-5 0  9992,2 55671  69.9993 129.6419 0002949 271.4065  88.6756 14.98328736 42728,6950.197,96.107,574.111,570.012,0.0
55671.0,STARLINK-5460,PAYLOAD,2023-11-18 13:00:00,14.98329855,0.0003002,69.9988,127.622,271.5935,88.488,2.36e-05,1.89e-06,0.0,0 STARLINK-5460,1 55671U 23021AV  23322.54167441  .00000189  00000-0  23600-4 0  9999,2 55671  69.9988 127.6220 0003002 271.5935  88.4880 14.98329855 43144,6950.193,96.107,574.145,569.972,0.0
55671.0,STARLINK-5460,PAYLOAD,2023-11-18 17:48:24,14.98331109,0.0002994,69.9989,127.1169,271.3746,88.707,2.2975e-05,1.81e-06,0.0,0 STARLINK-5460,1 55671U 23021AV  23322.74195356  .00000181  00000-0  22975-4 0  9993,2 55671  69.9989 127.1169 0002994 271.3746  88.7070 14.98331109 42877,6950.189,96.107,574.135,569.974,0.0
55671.0,STARLINK-5460,PAYLOAD,2023-11-19 13:02:05,14.98274374,0.0002853,69.9989,125.0972,273.1562,86.927,-0.00058477,-7.053e-05,0.0,0 STARLINK-5460,1 55671U 23021AV  23323.54312408 -.00007053  00000-0 -58477-3 0  9993,2 55671  69.9989 125.0972 0002853 273.1562  86.9270 14.98274374 43295,6950.365,96.111,574.213,570.247,0.0
55671.0,STARLINK-5460,PAYLOAD,2023-11-19 17:50:40,14.98144605,0.0002918,69.9992,124.5928,253.4511,106.6328,-0.0020017,-0.00023782,0.0,0 STARLINK-5460,1 55671U 23021AV  23323.74352790 -.00023782  00000-0 -20017-2 0  9998,2 55671  69.9992 124.5928 0002918 253.4511 106.6328 14.98144605 43029,6950.766,96.119,574.66,570.603,0.0
55671.0,STARLINK-5460,PAYLOAD,2023-11-19 21:03:00,14.98107631,0.000321,69.9992,124.2563,270.1484,89.9307,-0.0023484,-0.00027843,0.0,0 STARLINK-5460,1 55671U 23021AV  23323.87709406 -.00027843  00000-0 -23484-2 0  9995,2 55671  69.9992 124.2563 0003210 270.1484  89.9307 14.98107631 43345,6950.881,96.121,574.977,570.514,0.0
55671.0,STARLINK-5460,PAYLOAD,2023-11-20 09:52:29,14.97910479,0.0003082,69.9995,122.9107,259.5898,100.4914,-0.0040852,-0.00047983,0.0,0 STARLINK-5460,1 55671U 23021AV  23324.41145504 -.00047983  00000-0 -40852-2 0  9994,2 55671  69.9995 122.9107 0003082 259.5898 100.4914 14.97910479 43124,6951.491,96.134,575.498,571.213,0.0
55671.0,STARLINK-5460,PAYLOAD,2023-11-20 14:41:15,14.97697263,0.0002617,70.0006,122.4063,257.3208,102.7658,-0.0062427,-0.00072615,0.0,0 STARLINK-5460,1 55671U 23021AV  23324.61198458 -.00072615  00000-0 -62427-2 0  9994,2 55671  70.0006 122.4063 0002617 257.3208 102.7658 14.97697263 43459,6952.15,96.148,575.835,572.196,0.0
55671.0,STARLINK-5460,PAYLOAD,2023-11-20 19:29:57,14.97549023,0.0002587,69.9992,121.9022,287.7851,72.3026,-0.0075184,-0.00086925,0.0,0 STARLINK-5460,1 55671U 23021AV  23324.81247506 -.00086925  00000-0 -75184-2 0  9998,2 55671  69.9992 121.9022 0002587 287.7851  72.3026 14.97549023 43187,6952.609,96.157,576.273,572.675,0.0
55671.0,STARLINK-5460,PAYLOAD,2023-11-20 21:06:10,14.97519923,0.0003242,69.9994,121.734,272.7898,87.289,-0.0077175,-0.00089134,0.0,0 STARLINK-5460,1 55671U 23021AV  23324.87928710 -.00089134  00000-0 -77175-2 0  9994,2 55671  69.9994 121.7340 0003242 272.7898  87.2890 14.97519923 43498,6952.699,96.159,576.818,572.31,0.0
55671.0,STARLINK-5460,PAYLOAD,2023-11-21 06:00:00,14.96681994,0.0003263,70.0008,120.7996,270.2609,288.5451,0.0040704,0.00046771,0.0,0 STARLINK-5460,1 55671U 23021AV  23325.25001157  .00046771  00000-0  40704-2 0  9990,2 55671  70.0008 120.7996 0003263 270.2609 288.5451 14.96681994 43248,6955.294,96.213,579.428,574.889,0.0
55671.0,STARLINK-5460,PAYLOAD,2023-11-21 14:00:01,14.96734833,0.0003312,70.0009,119.9615,270.6859,283.6449,-0.0038067,-0.00043415,0.0,0 STARLINK-5460,1 55671U 23021AV  23325.58334491 -.00043415  00000-0 -38067-2 0  9999,2 55671  70.0009 119.9615 0003312 270.6859 283.6449 14.96734833  5795,6955.13,96.209,579.299,574.692,0.0
55671.0,STARLINK-5460,PAYLOAD,2023-11-22 00:00:00,14.96734696,0.0003267,70.0003,118.9134,274.631,4.1382,-0.0029679,-0.00033914,0.0,0 STARLINK-5460,1 55671U 23021AV  23326.00001157 -.00033914  00000-0 -29679-2 0  9999,2 55671  70.0003 118.9134 0003267 274.6310   4.1382 14.96734696  5709,6955.131,96.209,579.268,574.723,0.0
55671.0,STARLINK-5460,PAYLOAD,2023-11-22 06:00:00,14.96687695,0.0003275,70.0004,118.2846,269.6402,275.8071,0.0053661,0.00061831,0.0,0 STARLINK-5460,1 55671U 23021AV  23326.25001157  .00061831  00000-0  53661-2 0  9991,2 55671  70.0004 118.2846 0003275 269.6402 275.8071 14.96687695 43393,6955.276,96.212,579.419,574.863,0.0
55671.0,STARLINK-5460,PAYLOAD,2023-11-22 14:00:01,14.96763293,0.00033,70.0007,117.4462,269.4304,271.5528,-0.0058702,-0.00066726,0.0,0 STARLINK-5460,1 55671U 23021AV  23326.58334491 -.00066726  00000-0 -58702-2 0  9998,2 55671  70.0007 117.4462 0003300 269.4304 271.5528 14.96763293  5790,6955.042,96.208,579.202,574.612,0.0
